[
    {
        "Altitude(m)": 622205.9047383295,
        "Argument of Periapsis(deg)": 0.0,
        "Eccentricity": 0.0,
        "Inclination(deg)": 60.0,
        "Latitude(deg)": -52.16253821827482,
        "Longitude(deg)": -77.29957478684241,
        "Mean Anomaly(deg)": -114.54550000000005,
        "RAAN(deg)": 155.0,
        "Satellite Name": "Test1 697",
        "Satellite Number": 697,
        "Semi-Major Axis(m)": 6980739.136638005,
        "Time(s)": 0
    },
    {
        "Altitude(m)": 622344.811037158,
        "Argument of Periapsis(deg)": 0.00010418945913296404,
        "Eccentricity": 0.0,
        "Inclination(deg)": 60.0,
        "Latitude(deg)": -52.52011746830197,
        "Longitude(deg)": -76.51836020513004,
        "Mean Anomaly(deg)": -113.92539385453819,
        "RAAN(deg)": 154.99957995086027,
        "Satellite Name": "Test1 697",
        "Satellite Number": 697,
        "Semi-Major Axis(m)": 6980739.136638005,
        "Time(s)": 10
    }
]